NORAD_CAT_ID,OBJECT_NAME,OBJECT_TYPE,EPOCH,MEAN_MOTION,ECCENTRICITY,INCLINATION,RA_OF_ASC_NODE,ARG_OF_PERICENTER,MEAN_ANOMALY,BSTAR,MEAN_MOTION_DOT,MEAN_MOTION_DDOT,TLE_LINE0,TLE_LINE1,TLE_LINE2,SEMIMAJOR_AXIS,PERIOD,APOGEE,PERIGEE,DECAYED
52538.0,STARLINK-3933,PAYLOAD,2022-11-09 12:39:46,15.08845028,0.0001676999999999,53.2142,188.6932,54.3167,305.7981,-0.0003364,-5.639e-05,0.0,0 STARLINK-3933,1 52538U 22051F   22313.52762378 -.00005639  00000-0 -33640-3 0  9998,2 52538  53.2142 188.6932 0001677  54.3167 305.7981 15.08845028 27841,6917.865,95.437,540.89,538.57,0.0
52538.0,STARLINK-3933,PAYLOAD,2022-11-09 22:12:07,15.08794427,0.000206,53.2147,186.9102,43.3653,316.7501,2.7631e-06,-2.44e-06,0.0,0 STARLINK-3933,1 52538U 22051F   22313.92508192 -.00000244  00000-0  27631-5 0  9995,2 52538  53.2147 186.9102 0002060  43.3653 316.7501 15.08794427 27971,6918.02,95.44,541.31,538.46,0.0
52538.0,STARLINK-3933,PAYLOAD,2022-11-10 18:52:09,15.08831387,0.0002303,53.2145,183.0454,41.6841,318.4327,0.0017340999999999,0.00027412,0.0,0 STARLINK-3933,1 52538U 22051F   22314.78621922  .00027412  00000-0  17341-2 0  9996,2 52538  53.2145 183.0454 0002303  41.6841 318.4327 15.08831387 28105,6917.906999999997,95.438,541.365,538.179,0.0
52538.0,STARLINK-3933,PAYLOAD,2022-11-10 20:27:32,15.08834096,0.0002294,53.2146,182.7477,42.2823,317.8345,0.0017006,0.00026877,0.0,0 STARLINK-3933,1 52538U 22051F   22314.85245958  .00026877  00000-0  17006-2 0  9997,2 52538  53.2146 182.7477 0002294  42.2823 317.8345 15.08834096 28049,6917.898,95.438,541.35,538.1759999999998,0.0
52538.0,STARLINK-3933,PAYLOAD,2022-11-10 22:02:55,15.08833437,0.0002249,53.2145,182.4493,44.727,315.3904,0.0014494,0.00022851,0.0,0 STARLINK-3933,1 52538U 22051F   22314.91869985  .00022851  00000-0  14494-2 0  9992,2 52538  53.2145 182.4493 0002249  44.7270 315.3904 15.08833437 28059,6917.9,95.438,541.321,538.21,0.0
52538.0,STARLINK-3933,PAYLOAD,2022-11-11 20:18:19,15.08857512,0.0002256,53.2147,178.2863,45.5508,314.5669,0.0014696,0.0002319,0.0,0 STARLINK-3933,1 52538U 22051F   22315.84606027  .00023190  00000-0  14696-2 0  9992,2 52538  53.2147 178.2863 0002256  45.5508 314.5669 15.08857512 28268,6917.8269999999975,95.436,541.253,538.131,0.0
52538.0,STARLINK-3933,PAYLOAD,2022-11-12 10:36:47,15.08859295,0.0002277,53.2142,175.6108,49.5213,310.5977,0.00062309,9.648e-05,0.0,0 STARLINK-3933,1 52538U 22051F   22316.44221452  .00009648  00000-0  62309-3 0  9991,2 52538  53.2142 175.6108 0002277  49.5213 310.5977 15.08859295 28354,6917.821,95.436,541.262,538.111,0.0
52538.0,STARLINK-3933,PAYLOAD,2022-11-12 18:33:42,15.08849531,0.0002269,53.2144,174.1237,49.1991,310.9197,0.00016974,2.415e-05,0.0,0 STARLINK-3933,1 52538U 22051F   22316.77341397  .00002415  00000-0  16974-3 0  9990,2 52538  53.2144 174.1237 0002269  49.1991 310.9197 15.08849531 28409,6917.851,95.437,541.286,538.1469999999998,0.0
52538.0,STARLINK-3933,PAYLOAD,2022-11-12 20:09:06,15.08848757,0.0002268,53.2144,173.8264,49.1924,310.9265,0.00019733,2.854e-05,0.0,0 STARLINK-3933,1 52538U 22051F   22316.83965389  .00002854  00000-0  19733-3 0  9993,2 52538  53.2144 173.8264 0002268  49.1924 310.9265 15.08848757 28348,6917.854,95.437,541.288,538.15,0.0
52538.0,STARLINK-3933,PAYLOAD,2022-11-13 07:16:47,15.08848521,0.0002279,53.2144,171.7457,49.2504,310.8686,9.0533e-05,1.153e-05,0.0,0 STARLINK-3933,1 52538U 22051F   22317.30333132  .00001153  00000-0  90533-4 0  9990,2 52538  53.2144 171.7457 0002279  49.2504 310.8686 15.08848521 28419,6917.854,95.437,541.2959999999998,538.143,0.0
52538.0,STARLINK-3933,PAYLOAD,2022-11-13 18:24:31,15.08798614,0.0002566999999999,53.2158,169.6641,48.1215,311.9996,0.00055722,8.581e-05,0.0,0 STARLINK-3933,1 52538U 22051F   22317.76703025  .00008581  00000-0  55722-3 0  9994,2 52538  53.2158 169.6641 0002567  48.1215 311.9996 15.08798614 28550,6918.007,95.44,541.648,538.096,0.0
52538.0,STARLINK-3933,PAYLOAD,2022-11-14 07:07:35,15.08845547,0.0002133,53.2158,167.2845,52.4383,307.6803,3.8644e-05,3.27e-06,0.0,0 STARLINK-3933,1 52538U 22051F   22318.29693474  .00000327  00000-0  38644-4 0  9994,2 52538  53.2158 167.2845 0002133  52.4383 307.6803 15.08845547 28639,6917.863,95.437,541.2040000000002,538.253,0.0
52538.0,STARLINK-3933,PAYLOAD,2022-11-14 10:18:21,15.08844783,0.0002154,53.2158,166.68900000000005,51.2756,308.8428,9.824e-05,1.276e-05,0.0,0 STARLINK-3933,1 52538U 22051F   22318.42941276  .00001276  00000-0  98240-4 0  9997,2 52538  53.2158 166.6890 0002154  51.2756 308.8428 15.08844783 28587,6917.866,95.437,541.221,538.241,0.0
52538.0,STARLINK-3933,PAYLOAD,2022-11-14 18:15:16,15.08848026,0.0002171,53.2158,165.2021,52.0743,308.0445,0.00012367,1.681e-05,0.0,0 STARLINK-3933,1 52538U 22051F   22318.76060966  .00001681  00000-0  12367-3 0  9997,2 52538  53.2158 165.2021 0002171  52.0743 308.0445 15.08848026 28633,6917.856,95.437,541.2230000000002,538.219,0.0
52538.0,STARLINK-3933,PAYLOAD,2022-11-15 06:58:22,15.08837554,0.00021,53.2162,162.82299999999995,50.0982,310.0194,-4.438e-05,-9.94e-06,0.0,0 STARLINK-3933,1 52538U 22051F   22319.29053954 -.00000994  00000-0 -44380-4 0  9994,2 52538  53.2162 162.8230 0002100  50.0982 310.0194 15.08837554 28782,6917.888000000001,95.438,541.206,538.3,0.0
52538.0,STARLINK-3933,PAYLOAD,2022-11-15 13:19:55,15.08834836,0.0002172,53.2163,161.6336,49.3047,310.8133,8.9815e-05,1.141e-05,0.0,0 STARLINK-3933,1 52538U 22051F   22319.55550068  .00001141  00000-0  89815-4 0  9996,2 52538  53.2163 161.6336 0002172  49.3047 310.8133 15.08834836 28757,6917.896,95.438,541.264,538.259,0.0
52538.0,STARLINK-3933,PAYLOAD,2022-11-15 21:16:50,15.0884017,0.0002157,53.2162,160.1467,49.6427,310.4753,6.7772e-05,7.91e-06,0.0,0 STARLINK-3933,1 52538U 22051F   22319.88669733  .00000791  00000-0  67772-4 0  9990,2 52538  53.2162 160.1467 0002157  49.6427 310.4753 15.08840170 28801,6917.88,95.438,541.237,538.253,0.0
52538.0,STARLINK-3933,PAYLOAD,2022-11-16 06:49:09,15.08841527,0.0002189,53.2162,158.3625,49.572,310.5463,0.00010053,1.312e-05,0.0,0 STARLINK-3933,1 52538U 22051F   22320.28413578  .00001312  00000-0  10053-3 0  9999,2 52538  53.2162 158.3625 0002189  49.5720 310.5463 15.08841527 28868,6917.876,95.437,541.255,538.226,0.0
52538.0,STARLINK-3933,PAYLOAD,2022-11-16 19:32:13,15.08848038,0.0002206,53.2162,155.9837,50.1911,309.9275,7.1175e-05,8.45e-06,0.0,0 STARLINK-3933,1 52538U 22051F   22320.81405031  .00000845  00000-0  71175-4 0  9996,2 52538  53.2162 155.9837 0002206  50.1911 309.9275 15.08848038 29011,6917.856,95.437,541.247,538.195,0.0
52538.0,STARLINK-3933,PAYLOAD,2022-11-17 06:39:55,15.08846881,0.0002236,53.2159,153.9022,49.9223,310.1965,0.00016798,2.387e-05,0.0,0 STARLINK-3933,1 52538U 22051F   22321.27772759  .00002387  00000-0  16798-3 0  9993,2 52538  53.2159 153.9022 0002236  49.9223 310.1965 15.08846881 29010,6917.859,95.437,541.271,538.178,0.0
52538.0,STARLINK-3933,PAYLOAD,2022-11-17 19:23:01,15.08835467,0.0002254,53.2158,151.5231,51.9038,308.2157,2.8141e-05,1.6e-06,0.0,0 STARLINK-3933,1 52538U 22051F   22321.80765728  .00000160  00000-0  28141-4 0  9993,2 52538  53.2158 151.5231 0002254  51.9038 308.2157 15.08835467 29167,6917.894,95.438,541.319,538.2,0.0
52538.0,STARLINK-3933,PAYLOAD,2022-11-18 12:52:15,15.08841175,0.0002222,53.216,148.2508,55.7792,304.341,9.6346e-06,-1.35e-06,0.0,0 STARLINK-3933,1 52538U 22051F   22322.53629436 -.00000135  00000-0  96346-5 0  9995,2 52538  53.2160 148.2508 0002222  55.7792 304.3410 15.08841175 29201,6917.877,95.437,541.279,538.205,0.0
52538.0,STARLINK-3933,PAYLOAD,2022-11-18 19:13:48,15.08842447,0.0002236,53.2157,147.0621,53.285,306.8348,1.9145e-05,1.6e-07,0.0,0 STARLINK-3933,1 52538U 22051F   22322.80125230  .00000016  00000-0  19145-4 0  9996,2 52538  53.2157 147.0621 0002236  53.2850 306.8348 15.08842447 29315,6917.873000000001,95.437,541.285,538.191,0.0
52538.0,STARLINK-3933,PAYLOAD,2022-11-19 09:32:16,15.08840453,0.0002198,53.2159,144.3857,51.6209,308.498,0.00010247,1.343e-05,0.0,0 STARLINK-3933,1 52538U 22051F   22323.39740983  .00001343  00000-0  10247-3 0  9996,2 52538  53.2159 144.3857 0002198  51.6209 308.4980 15.08840453 29332,6917.879,95.438,541.265,538.2230000000002,0.0
52538.0,STARLINK-3933,PAYLOAD,2022-11-19 19:04:34,15.08843585,0.0002216,53.2159,142.6014,52.4239,307.6954,0.00011815,1.593e-05,0.0,0 STARLINK-3933,1 52538U 22051F   22323.79484718  .00001593  00000-0  11815-3 0  9990,2 52538  53.2159 142.6014 0002216  52.4239 307.6954 15.08843585 29398,6917.869000000002,95.437,541.2669999999998,538.201,0.0
52538.0,STARLINK-3933,PAYLOAD,2022-11-20 04:36:53,15.088415,0.0001905,53.2161,140.8167,33.8747,326.2367,0.0001063,1.404e-05,0.0,0 STARLINK-3933,1 52538U 22051F   22324.19228875  .00001404  00000-0  10630-3 0  9990,2 52538  53.2161 140.8167 0001905  33.8747 326.2367 15.08841500 29526,6917.876,95.437,541.059,538.423,0.0
52538.0,STARLINK-3933,PAYLOAD,2022-11-20 12:33:50,15.0883046,0.0002175,53.2159,139.3329,50.8932,309.2253,-1.5072e-05,-5.28e-06,0.0,0 STARLINK-3933,1 52538U 22051F   22324.52350288 -.00000528  00000-0 -15072-4 0  9995,2 52538  53.2159 139.3329 0002175  50.8932 309.2253 15.08830460 29574,6917.91,95.438,541.279,538.27,0.0
52538.0,STARLINK-3933,PAYLOAD,2022-11-20 20:30:46,15.08834153,0.0002262,53.216,137.8436,52.663,307.4568,-3.3468e-06,-3.42e-06,0.0,0 STARLINK-3933,1 52538U 22051F   22324.85470013 -.00000342  00000-0 -33468-5 0  9994,2 52538  53.2160 137.8436 0002262  52.6630 307.4568 15.08834153 29550,6917.898,95.438,541.328,538.198,0.0
52538.0,STARLINK-3933,PAYLOAD,2022-11-21 04:27:41,15.08836312,0.0002228,53.2159,136.3576,52.8491,307.2705,6.3861e-06,-1.87e-06,0.0,0 STARLINK-3933,1 52538U 22051F   22325.18589970 -.00000187  00000-0  63861-5 0  9990,2 52538  53.2159 136.3576 0002228  52.8491 307.2705 15.08836312 29679,6917.892,95.438,541.298,538.215,0.0
